[{"OBJECT_NAME":"TOMORROW-S1","OBJECT_ID":"2024-149M","EPOCH":"2026-03-09T17:23:34.533600","MEAN_MOTION":15.31198363,"ECCENTRICITY":0.00018188,"INCLINATION":97.3791,"RA_OF_ASC_NODE":149.6044,"ARG_OF_PERICENTER":207.204,"MEAN_ANOMALY":152.9106,"EPHEMERIS_TYPE":0,"CLASSIFICATION_TYPE":"U","NORAD_CAT_ID":60479,"ELEMENT_SET_NO":999,"REV_AT_EPOCH":8686,"BSTAR":0.0002885603,"MEAN_MOTION_DOT":8.62e-5,"MEAN_MOTION_DDOT":0},{"OBJECT_NAME":"STARLINK-35362","OBJECT_ID":"2025-224G","EPOCH":"2026-03-09T05:50:25.715616","MEAN_MOTION":15.3021877,"ECCENTRICITY":0.00012652,"INCLINATION":53.162,"RA_OF_ASC_NODE":13.5923,"ARG_OF_PERICENTER":231.4894,"MEAN_ANOMALY":128.5994,"EPHEMERIS_TYPE":0,"CLASSIFICATION_TYPE":"U","NORAD_CAT_ID":65888,"ELEMENT_SET_NO":999,"REV_AT_EPOCH":2475,"BSTAR":0.0015275517,"MEAN_MOTION_DOT":0.00045184,"MEAN_MOTION_DDOT":0}]
